OBJECT_NAME,OBJECT_ID,EPOCH,MEAN_MOTION,ECCENTRICITY,INCLINATION,RA_OF_ASC_NODE,ARG_OF_PERICENTER,MEAN_ANOMALY,EPHEMERIS_TYPE,CLASSIFICATION_TYPE,NORAD_CAT_ID,ELEMENT_SET_NO,REV_AT_EPOCH,BSTAR,MEAN_MOTION_DOT,MEAN_MOTION_DDOT
LEMUR-2-ARIANNA,2025-009CU,2026-06-09T11:58:04.852992,15.02369792,.00033759,97.6883,241.9436,138.5528,221.5953,0,U,62699,999,7640,.57740391E-3,.7585E-4,0
LEMUR-2-ALISIA,2025-009DB,2026-06-09T11:28:23.031840,15.02660150,.00011058,97.6967,242.7005,189.5011,170.6194,0,U,62706,999,9900,.53486659E-3,.7074E-4,0
LEMUR-2-ROUNDTRIPPER,2025-009DG,2026-06-09T12:11:19.745952,15.03662237,.00045033,97.7245,243.1983,156.1336,204.0099,0,U,62711,999,7647,.61498808E-3,.8366E-4,0
LEMUR-2-MYNAMEISJEFF,2025-009DH,2026-06-09T12:09:06.948288,15.03676281,.00027632,97.7293,243.5731,182.4773,177.6439,0,U,62712,999,7647,.59077448E-3,.8036E-4,0
LEMUR-2-LEIA-PHILIP,2025-052AN,2026-06-09T04:24:56.870784,14.97294512,.000204,97.6847,52.2692,243.2952,116.8061,0,U,63246,999,6747,.17873E-3,.2014E-4,0
LEMUR-2-LIA-MARTIN,2025-052AQ,2026-06-09T12:36:49.582368,14.97742456,.00024266,97.6913,53.0684,168.6709,191.4568,0,U,63248,999,6753,.41772918E-3,.4843E-4,0
LEMUR-2-DELOITTE-1,2025-052BB,2026-06-09T10:25:07.191264,14.97543158,.00026022,97.6922,53.3073,113.2780,246.8717,0,U,63259,999,6753,.29149162E-3,.3344E-4,0
LEMUR-2-EMERSONROSE,2025-052BD,2026-06-09T10:00:23.251392,14.99027434,.00023588,97.6905,53.8347,69.8836,290.2640,0,U,63261,999,6757,.24109635E-3,.2865E-4,0
LEMUR-2-MARACHE-FRAN,2025-052BE,2026-06-09T11:08:26.759904,15.00020714,.00061396,97.6949,54.1806,48.5329,311.6421,0,U,63262,999,6760,.44415512E-3,.547E-4,0
LEMUR-2-THEFALCONER,2025-052BG,2026-06-09T12:37:47.899776,14.97341008,.00035146,97.6881,53.0266,57.0491,303.1068,0,U,63264,999,6754,.33312687E-3,.381E-4,0
LEMUR-2-UNTITLED-SC,2025-061A,2026-06-09T11:38:54.120768,15.13418052,.00171041,97.5629,135.9034,294.0280,65.9160,0,U,63351,999,6642,.20257514E-3,.3563E-4,0
LEMUR-2-ESPERANZA,2025-061B,2026-06-09T09:31:27.430464,15.13512339,.00166403,97.5639,135.9075,293.8452,66.1035,0,U,63352,999,6641,.17932444E-3,.3154E-4,0
LEMUR-2-KREMPEL-BRO2,2025-061C,2026-06-09T10:13:31.758528,15.13945808,.00175213,97.5684,136.4597,285.1860,74.7434,0,U,63353,999,6643,.19330918E-3,.3449E-4,0
LEMUR-2-THERMORAPTOR,2025-061D,2026-06-09T11:23:27.615552,15.14025782,.00172351,97.5691,136.5823,284.0077,75.9238,0,U,63354,999,6644,.21309017E-3,.3817E-4,0
LEMUR-2-NEUROSPICY,2025-061E,2026-06-09T10:43:30.581472,15.14139696,.00150241,97.5616,136.1870,288.3746,71.5852,0,U,63355,999,6644,.1678301E-3,.2999E-4,0
LEMUR-2-TILLINFINITY,2025-061F,2026-06-09T11:38:35.661408,15.14726726,.00162511,97.5602,136.5100,274.8049,85.1327,0,U,63356,999,6647,.21018356E-3,.3838E-4,0
LEMUR-2-KREMPEL-BRO1,2025-061G,2026-06-09T10:58:58.069920,15.14532083,.0016835,97.5604,136.4010,276.2036,83.7278,0,U,63357,999,6646,.17109305E-3,.3095E-4,0
LEMUR-2-LANGER2SPACE,2025-061H,2026-06-08T21:18:29.459808,15.14224922,.00149781,97.5608,135.6518,288.5876,71.3728,0,U,63358,999,6636,.22276776E-3,.4013E-4,0
LEMUR-2-BALTO,2025-052BH,2026-06-09T10:46:15.284064,15.00001794,.00067235,97.6885,54.1491,77.3763,282.8211,0,U,63395,999,6760,.42605799E-3,.5243E-4,0
LEMUR-2-KRISH,2025-135AK,2026-06-09T14:00:52.031520,14.96133280,.00013154,97.7722,275.5140,107.9724,252.1641,0,U,64561,999,5278,.40443873E-3,.4494E-4,0
LEMUR-2-HUBBLE-4,2025-135AP,2026-06-09T13:32:08.798208,14.93175823,.00015071,97.7690,274.5631,351.8083,8.3112,0,U,64565,999,5273,.1155261E-3,.115E-4,0
LEMUR-2-SEJONG-2,2025-135BL,2026-06-09T14:47:40.734816,14.96642047,.00044496,97.7685,275.6903,13.8304,346.3039,0,U,64586,999,5281,.35301427E-3,.3968E-4,0
LEMUR-2-HUBBLE-5,2025-135BT,2026-06-09T07:43:35.379264,14.94111087,.00056952,97.7710,274.9448,20.1763,339.9681,0,U,64840,999,5273,.16601695E-3,.1718E-4,0
LEMUR-2-KARENDARRELL,2025-135BU,2026-06-09T13:55:49.644480,15.00000317,.00091642,97.7668,276.8027,231.6343,128.4057,0,U,64841,999,5287,.57092257E-3,.7048E-4,0
LEMUR-2-LUCILLE-ROSE,2025-135BV,2026-06-09T06:54:08.182944,15.00053411,.00106985,97.7767,276.5201,313.8437,46.1901,0,U,65403,999,4745,.48608724E-3,.6001E-4,0
LEMUR-2-AFFIE-WAUWIE,2025-248C,2026-06-09T06:29:53.901600,15.26913101,.00084766,45.3882,157.8710,30.7029,329.4355,0,U,66295,999,3338,.44417572E-3,.11685E-3,0
LEMUR-2-DEANANDMAEVE,2025-276N,2026-06-09T11:29:56.555520,15.19637450,.0006418,97.4211,234.0832,39.5718,320.5984,0,U,66678,999,2924,.30625462E-3,.6464E-4,0
LEMUR-2-STAS-GORBUK,2025-276W,2026-06-09T02:19:15.532320,15.19293405,.00059173,97.4245,233.7628,41.0209,319.1470,0,U,66686,999,2918,.23570032E-3,.4908E-4,0
LEMUR-2-TEODOR,2025-276DG,2026-06-08T18:14:58.392384,15.20959604,.00018446,97.4147,233.6579,123.1960,236.9453,0,U,66768,999,2916,.28970999E-3,.6349E-4,0
